CYGFM04                 
1 41885U 16078B   24241.16260176  .00018521  00000+0  62171-3 0  9996
2 41885  34.9381 188.1274 0009368 171.0608 189.0275 15.29941975427351
CYGFM02                 
1 41886U 16078C   24241.17172663  .00020610  00000+0  68378-3 0  9998
2 41886  34.9462 190.1581 0011497 156.6783 203.4456 15.30282364427359
CYGFM01                 
1 41887U 16078D   24240.62248488  .00016311  00000+0  56806-3 0  9993
2 41887  34.9482 212.1735 0010520 127.4755 232.6918 15.28758458426949
CYGFM08                 
1 41888U 16078E   24240.59615192  .00016857  00000+0  56927-3 0  9999
2 41888  34.9489 199.8500 0012108 151.6302 208.5075 15.29733440427154
CYGFM07                 
1 41890U 16078G   24240.55801740  .00016828  00000+0  56273-3 0  9996
2 41890  34.9514 191.3343 0009206 167.1485 192.9467 15.30082439427267
CYGFM03                 
1 41891U 16078H   24238.96599457  .00015345  00000+0  51616-3 0  9997
2 41891  34.9438 202.7165 0008594 132.1158 228.0290 15.29911833426856
FENGYUN 3D              
1 43010U 17072A   24241.13851952  .00000374  00000+0  19947-3 0  9998
2 43010  98.9165 196.2359 0002424 110.8931 249.2504 14.19405449351622
NOAA 20 (JPSS-1)        
1 43013U 17073A   24241.09491484  .00000255  00000+0  14139-3 0  9993
2 43013  98.7078 177.8164 0001993  50.9920 309.1434 14.19570728351101
GOES 17                 
1 43226U 18022A   24240.89923258 -.00000104  00000+0  00000+0 0  9992
2 43226   0.0032 305.6600 0002042 257.0768 352.8777  1.00272085 23826
FENGYUN 2H              
1 43491U 18050A   24241.12757712 -.00000146  00000+0  00000+0 0  9990
2 43491   1.3262  86.6987 0001261 106.7474 268.7144  1.00274770 22914
METOP-C                 
1 43689U 18087A   24241.14893616  .00000334  00000+0  17265-3 0  9998
2 43689  98.7178 299.5647 0001128 204.8783 155.2340 14.21504787301348
GEO-KOMPSAT-2A          
1 43823U 18100A   24240.37329802 -.00000357  00000+0  00000+0 0  9990
2 43823   0.0118  68.5560 0001683  45.6156 124.5719  1.00272415 21023
METEOR-M2 2             
1 44387U 19038A   24241.17594669  .00000530  00000+0  25066-3 0  9996
2 44387  98.8340 210.7072 0002381 101.6716 258.4730 14.23945081267635
ARKTIKA-M 1             
1 47719U 21016A   24240.03659476  .00000029  00000+0  00000+0 0  9999
2 47719  63.1328 143.5940 6966929 268.5813  17.7869  2.00597082 25568
FENGYUN 3E              
1 49008U 21062A   24241.23065950  .00000118  00000+0  76556-4 0  9997
2 49008  98.7361 241.5530 0001866 146.5681 213.5614 14.19778120163214
GOES 18                 
1 51850U 22021A   24240.74971147  .00000083  00000+0  00000+0 0  9997
2 51850   0.0063  87.0002 0000339 110.1661 272.1784  1.00270902   594
NOAA 21 (JPSS-2)        
1 54234U 22150A   24240.91945985  .00000300  00000+0  16313-3 0  9999
2 54234  98.7531 177.9786 0000693  43.7415 316.3816 14.19560022 93156
METEOSAT-12 (MTG-I1)    
1 54743U 22170C   24241.06305807 -.00000021  00000+0  00000+0 0  9999
2 54743   0.5797  44.4131 0001941  96.0559 218.6722  1.00271038  6375
TIANMU-1 03             
1 55973U 23039A   24241.18260934  .00018673  00000+0  76372-3 0  9994
2 55973  97.4756  31.4672 0003989 287.9825  72.0977 15.24385829 79816
TIANMU-1 04             
1 55974U 23039B   24241.16166138  .00019130  00000+0  77956-3 0  9992
2 55974  97.4679  30.9431 0005020 283.5119  76.5558 15.24498814 79806
TIANMU-1 05             
1 55975U 23039C   24241.21533668  .00018148  00000+0  74232-3 0  9997
2 55975  97.4729  31.3599 0003671 311.9101  48.1823 15.24389351 79805
TIANMU-1 06             
1 55976U 23039D   24241.19006408  .00018438  00000+0  74917-3 0  9994
2 55976  97.4740  31.4858 0004196 308.3136  51.7723 15.24608144 79802
METEOR-M2 3             
1 57166U 23091A   24241.14117714  .00000079  00000+0  53543-4 0  9998
2 57166  98.7069 295.1494 0002864 284.9306  75.1555 14.23917837 60865
TIANMU-1 07             
1 57399U 23101A   24241.15770035  .00011010  00000+0  53742-3 0  9997
2 57399  97.3574 296.3226 0003332 304.2594  55.8324 15.18442460 61344
TIANMU-1 08             
1 57400U 23101B   24241.12659276  .00010362  00000+0  50585-3 0  9991
2 57400  97.3562 296.1563 0005618 308.6691  51.4040 15.18446282 61333
TIANMU-1 09             
1 57401U 23101C   24241.04371729  .00011480  00000+0  55966-3 0  9997
2 57401  97.3517 295.8756 0005975 302.7300  57.3358 15.18466215 61326
TIANMU-1 10             
1 57402U 23101D   24241.14256331  .00010698  00000+0  52184-3 0  9999
2 57402  97.3597 296.3207 0008007 299.9463  60.0976 15.18451395 61339
FENGYUN 3F              
1 57490U 23111A   24241.18112942  .00000236  00000+0  13188-3 0  9998
2 57490  98.7646 309.6333 0000632 144.0510 216.0709 14.19865254 55482
ARKTIKA-M 2             
1 58584U 23198A   24240.26727026  .00000095  00000+0  00000+0 0  9999
2 58584  63.2516 227.2813 6955453 269.7504  17.3829  2.00599419  5093
TIANMU-1 11             
1 58645U 23205A   24241.01727153  .00010172  00000+0  52790-3 0  9995
2 58645  97.4017 264.2928 0012486 147.7657 212.4342 15.16250974 37399
TIANMU-1 12             
1 58646U 23205B   24241.03027409  .00010352  00000+0  53823-3 0  9993
2 58646  97.4002 264.2284 0010726 141.1370 219.0636 15.16201176 37382
TIANMU-1 13             
1 58647U 23205C   24241.06606832  .00010032  00000+0  52079-3 0  9997
2 58647  97.4034 264.2784 0011457 125.9766 234.2531 15.16257842 37388
TIANMU-1 14             
1 58648U 23205D   24241.04985515  .00009587  00000+0  49777-3 0  9998
2 58648  97.3958 264.0575 0012130 129.1415 231.0898 15.16257615 37384
TIANMU-1 19             
1 58660U 23208A   24241.11799707  .00012088  00000+0  62340-3 0  9990
2 58660  97.4147 351.7915 0009617 114.5322 245.6914 15.16458536 37062
TIANMU-1 20             
1 58661U 23208B   24241.15026897  .00014000  00000+0  70355-3 0  9999
2 58661  97.4073 351.8136 0010759 123.1619 237.0648 15.17322188 37086
TIANMU-1 21             
1 58662U 23208C   24241.16448769  .00015336  00000+0  74816-3 0  9996
2 58662  97.4113 352.2242 0010414 122.8938 237.3300 15.18342546 37105
TIANMU-1 22             
1 58663U 23208D   24241.20267973  .00014573  00000+0  75119-3 0  9997
2 58663  97.4130 351.9312 0006029 132.1384 228.0362 15.16454599 37087
TIANMU-1 15             
1 58700U 24004A   24241.18066032  .00013324  00000+0  68977-3 0  9991
2 58700  97.4647  61.0165 0010177 157.2133 202.9554 15.16296490 35677
TIANMU-1 16             
1 58701U 24004B   24241.16182005  .00012373  00000+0  64016-3 0  9992
2 58701  97.4575  60.8131 0010087 162.1240 198.0350 15.16335144 35671
TIANMU-1 17             
1 58702U 24004C   24241.14801290  .00011750  00000+0  60902-3 0  9993
2 58702  97.4616  60.9666 0008105 155.4819 204.6801 15.16302184 35669
TIANMU-1 18             
1 58703U 24004D   24241.19637013  .00012224  00000+0  63343-3 0  9998
2 58703  97.4631  61.1028 0007493 145.8885 214.2831 15.16304022 35671
INSAT-3DS               
1 58990U 24033A   24240.89465977 -.00000170  00000+0  00000+0 0  9997
2 58990   0.0954 273.6178 0001699 255.1456 212.0022  1.00271969 40466
METEOR-M2 4             
1 59051U 24039A   24241.17452671  .00000171  00000+0  96437-4 0  9995
2 59051  98.6043 201.3179 0005881 278.4639  81.5873 14.22256346 25729
GOES 19                 
1 60133U 24119A   24240.61608944 -.00000195  00000+0  00000+0 0  9994
2 60133   0.0372 218.4437 0002543 236.2246  13.9470  1.00269629   363
HULIANWAN GAOGUI-02 (H*)
1 60327U 24135A   24240.86924331 -.00000187  00000+0  00000+0 0  9996
2 60327   0.0222 202.8537 0000534  36.7491 202.9893  1.00273021   419
CZ-3B R/B               
1 60328U 24135B   24240.40622302  .00133926  11658-6  23530-2 0  9991
2 60328  26.7597 136.0423 7180674 195.9880 116.4126  2.45928607   621
STARLINK-31745          
1 60329U 24136A   24241.16667824  .00082168  00000+0  89616-3 0  9996
2 60329  53.1581 152.8321 0000663  93.2730 194.9057 15.62698510  5313
STARLINK-32153          
1 60330U 24136B   24241.16667824  .00060987  00000+0  66815-3 0  9999
2 60330  53.1579 152.8246 0000861 124.1116 167.8991 15.62707523  5175
STARLINK-32203          
1 60331U 24136C   24241.25001157  .00048270  00000+0  53058-3 0  9997
2 60331  53.1557 152.4092 0000610 103.1023 301.8221 15.62721638  5183
STARLINK-32171          
1 60332U 24136D   24241.16667824  .00080964  00000+0  88323-3 0  9996
2 60332  53.1578 152.8005 0000566 110.6390 192.8704 15.62698939  5120
STARLINK-32133          
1 60333U 24136E   24241.16667824  .00202632  00000+0  21761-2 0  9997
2 60333  53.1577 152.8086 0000708 131.4273 168.3047 15.62613211  5115
STARLINK-32132          
1 60334U 24136F   24241.25001157  .00048806  00000+0  53637-3 0  9998
2 60334  53.1580 152.3865 0000540  73.8074 342.6161 15.62721734  5183
STARLINK-32168          
1 60335U 24136G   24241.16667824  .00082325  00000+0  89786-3 0  9996
2 60335  53.1557 152.7840 0000513  91.7537 219.4223 15.62698036  5276
STARLINK-32079          
1 60336U 24136H   24241.16667824  .00083539  00000+0  91091-3 0  9997
2 60336  53.1579 152.7766 0000577  83.3562 231.6531 15.62697380  5328
STARLINK-32187          
1 60337U 24136J   24241.16667824  .00329126  00000+0  17990-2 0  9998
2 60337  53.1485 152.5359 0002223 202.8497 228.7104 15.78403255  5221
STARLINK-32078          
1 60338U 24136K   24241.25001157  .00044524  00000+0  49003-3 0  9997
2 60338  53.1561 152.3542 0000640 113.3979 318.3563 15.62724269  5297
STARLINK-32175          
1 60339U 24136L   24241.16667824  .00080162  00000+0  87458-3 0  9991
2 60339  53.1559 152.7528 0000615  55.8648 270.6420 15.62700323  5273
STARLINK-32176          
1 60340U 24136M   24241.16667824  .00080437  00000+0  87752-3 0  9995
2 60340  53.1581 152.7452 0000614  81.1782 249.1617 15.62700523  5277
